NORAD_CAT_ID,OBJECT_NAME,OBJECT_TYPE,EPOCH,MEAN_MOTION,ECCENTRICITY,INCLINATION,RA_OF_ASC_NODE,ARG_OF_PERICENTER,MEAN_ANOMALY,BSTAR,MEAN_MOTION_DOT,MEAN_MOTION_DDOT,TLE_LINE0,TLE_LINE1,TLE_LINE2,SEMIMAJOR_AXIS,PERIOD,APOGEE,PERIGEE,DECAYED
55650.0,STARLINK-5494,PAYLOAD,2023-12-05 11:34:28,14.98320273,0.0003293,69.9997,105.088,280.3457,79.733,0.00024485,2.829e-05,0.0,0 STARLINK-5494,1 55650U 23021Y   23339.48227178  .00002829  00000-0  24485-3 0  9995,2 55650  69.9997 105.0880 0003293 280.3457  79.7330 14.98320273 44882,6950.223,96.108,574.377,569.799,0.0
55650.0,STARLINK-5494,PAYLOAD,2023-12-05 13:10:36,14.98320768,0.0003281,69.9997,104.9197,280.2221,79.8568,0.00024638,2.847e-05,0.0,0 STARLINK-5494,1 55650U 23021Y   23339.54903185  .00002847  00000-0  24638-3 0  9991,2 55650  69.9997 104.9197 0003281 280.2221  79.8568 14.98320768 45194,6950.221,96.108,574.367,569.806,0.0
55650.0,STARLINK-5494,PAYLOAD,2023-12-06 11:36:28,14.98338781,0.0002541,70.0014,102.5658,256.8885,103.1991,0.00015087,1.708e-05,0.0,0 STARLINK-5494,1 55650U 23021Y   23340.48366295  .00001708  00000-0  15087-3 0  9994,2 55650  70.0014 102.5658 0002541 256.8885 103.1991 14.98338781 45034,6950.166,96.106,573.797,570.265,0.0
55650.0,STARLINK-5494,PAYLOAD,2023-12-06 13:12:36,14.98338417,0.000254,70.0015,102.3977,256.8333,103.2543,0.00014618,1.652e-05,0.0,0 STARLINK-5494,1 55650U 23021Y   23340.55042290  .00001652  00000-0  14618-3 0  9995,2 55650  70.0015 102.3977 0002540 256.8333 103.2543 14.98338417 45348,6950.167,96.106,573.797,570.267,0.0
55650.0,STARLINK-5494,PAYLOAD,2023-12-07 11:38:29,14.98338244,0.0003005,69.9998,100.037,273.4073,86.6742,-6.2241e-05,-8.36e-06,0.0,0 STARLINK-5494,1 55650U 23021Y   23341.48506447 -.00000836  00000-0 -62241-4 0  9998,2 55650  69.9998 100.0370 0003005 273.4073  86.6742 14.98338244 45185,6950.167,96.106,574.121,569.944,0.0
55650.0,STARLINK-5494,PAYLOAD,2023-12-07 13:14:37,14.9833778,0.0002798,70.0003,99.8692,268.0381,92.0458,-6.5111e-05,-8.7e-06,0.0,0 STARLINK-5494,1 55650U 23021Y   23341.55182416 -.00000870  00000-0 -65111-4 0  9999,2 55650  70.0003  99.8692 0002798 268.0381  92.0458 14.98337780 45490,6950.169,96.107,573.978,570.089,0.0
55650.0,STARLINK-5494,PAYLOAD,2023-12-08 11:40:30,14.98335979,0.0002772,70.0005,97.5127,269.8117,90.2724,-7.2336e-05,-9.56e-06,0.0,0 STARLINK-5494,1 55650U 23021Y   23342.48646062 -.00000956  00000-0 -72336-4 0  9996,2 55650  70.0005  97.5127 0002772 269.8117  90.2724 14.98335979 45335,6950.174,96.107,573.966,570.113,0.0
55650.0,STARLINK-5494,PAYLOAD,2023-12-08 13:16:38,14.98335444,0.0002678,70.0007,97.3447,266.9052,93.18,-7.6102e-05,-1.001e-05,0.0,0 STARLINK-5494,1 55650U 23021Y   23342.55322066 -.00001001  00000-0 -76102-4 0  9996,2 55650  70.0007  97.3447 0002678 266.9052  93.1800 14.98335444 45649,6950.176,96.107,573.902,570.18,0.0
55650.0,STARLINK-5494,PAYLOAD,2023-12-08 18:05:02,14.98335424,0.0002836,70.0004,96.8393,271.8214,88.262,-7.0731e-05,-9.37e-06,0.0,0 STARLINK-5494,1 55650U 23021Y   23342.75350000 -.00000937  00000-0 -70731-4 0  9996,2 55650  70.0004  96.8393 0002836 271.8214  88.2620 14.98335424 45677,6950.176,96.107,574.012,570.07,0.0
55650.0,STARLINK-5494,PAYLOAD,2023-12-09 11:42:30,14.98330273,0.0002965,70.0003,94.9888,269.6337,90.4483,3.3979e-06,-5.2e-07,0.0,0 STARLINK-5494,1 55650U 23021Y   23343.48785864 -.00000052  00000-0  33979-5 0  9998,2 55650  70.0003  94.9888 0002965 269.6337  90.4483 14.98330273 45486,6950.192,96.107,574.118,569.996,0.0
55650.0,STARLINK-5494,PAYLOAD,2023-12-09 13:18:39,14.98330259,0.0003146,70.0001,94.8202,272.4832,87.5967,5.1902e-06,-3.1e-07,0.0,0 STARLINK-5494,1 55650U 23021Y   23343.55461873 -.00000031  00000-0  51902-5 0  9990,2 55650  70.0001  94.8202 0003146 272.4832  87.5967 14.98330259 45799,6950.192,96.107,574.244,569.871,0.0
55650.0,STARLINK-5494,PAYLOAD,2023-12-10 14:56:48,14.98327116,0.0001749,70.0047,92.1329,244.2679,115.83,5.0797e-05,5.13e-06,0.0,0 STARLINK-5494,1 55650U 23021Y   23344.62278151  .00000513  00000-0  50797-4 0  9998,2 55650  70.0047  92.1329 0001749 244.2679 115.8300 14.98327116 45955,6950.202,96.107,573.282,570.851,0.0
55650.0,STARLINK-5494,PAYLOAD,2023-12-10 16:32:56,14.98328528,0.0003449,70.0006,91.9586,263.7345,96.3421,-9.2114e-06,-2.03e-06,0.0,0 STARLINK-5494,1 55650U 23021Y   23344.68953821 -.00000203  00000-0 -92114-5 0  9996,2 55650  70.0006  91.9586 0003449 263.7345  96.3421 14.98328528 45660,6950.197,96.107,574.46,569.665,0.0
55650.0,STARLINK-5494,PAYLOAD,2023-12-11 13:22:40,14.98328262,0.0002907,70.0018,89.7729,258.9054,101.1778,5.0287e-06,-3.3e-07,0.0,0 STARLINK-5494,1 55650U 23021Y   23345.55741796 -.00000033  00000-0  50287-5 0  9994,2 55650  70.0018  89.7729 0002907 258.9054 101.1778 14.98328262 46091,6950.198,96.107,574.084,570.043,0.0
55650.0,STARLINK-5494,PAYLOAD,2023-12-11 16:34:56,14.98332117,0.0002946,70.001,89.4352,281.5027,78.5801,4.9434e-05,4.97e-06,0.0,0 STARLINK-5494,1 55650U 23021Y   23345.69093648  .00000497  00000-0  49434-4 0  9999,2 55650  70.0010  89.4352 0002946 281.5027  78.5801 14.98332117 45814,6950.186,96.107,574.099,570.004,0.0
55650.0,STARLINK-5494,PAYLOAD,2023-12-12 13:24:41,14.98359354,0.0003205,70.0017,87.2496,242.4121,117.6713,-0.00046453,-5.636e-05,0.0,0 STARLINK-5494,1 55650U 23021Y   23346.55881290 -.00005636  00000-0 -46453-3 0  9992,2 55650  70.0017  87.2496 0003205 242.4121 117.6713 14.98359354 46243,6950.102,96.105,574.195,569.74,0.0
55650.0,STARLINK-5494,PAYLOAD,2023-12-12 16:36:57,14.98348066,0.0003323,70.0005,86.9109,261.03,99.0483,-0.00031012,-3.793e-05,0.0,0 STARLINK-5494,1 55650U 23021Y   23346.69233390 -.00003793  00000-0 -31012-3 0  9996,2 55650  70.0005  86.9109 0003323 261.0300  99.0483 14.98348066 45967,6950.137,96.106,574.312,569.692,0.0
55650.0,STARLINK-5494,PAYLOAD,2023-12-13 13:26:42,14.98329478,0.0002515,70.0024,84.7244,243.1208,116.9694,3.2965e-05,3e-06,0.0,0 STARLINK-5494,1 55650U 23021Y   23347.56021384  .00000300  00000-0  32965-4 0  9999,2 55650  70.0024  84.7244 0002515 243.1208 116.9694 14.98329478 46391,6950.195,96.107,573.807,570.312,0.0
55650.0,STARLINK-5494,PAYLOAD,2023-12-13 16:38:58,14.9833188,0.0002708,70.0013,84.3856,264.7655,95.3195,3.6133e-05,3.38e-06,0.0,0 STARLINK-5494,1 55650U 23021Y   23347.69373280  .00000338  00000-0  36133-4 0  9990,2 55650  70.0013  84.3856 0002708 264.7655  95.3195 14.98331880 46119,6950.187,96.107,573.934,570.17,0.0
55650.0,STARLINK-5494,PAYLOAD,2023-12-14 13:28:43,14.98330105,0.0002847,70.001,82.1983,261.452,98.6316,1.6108e-05,9.9e-07,0.0,0 STARLINK-5494,1 55650U 23021Y   23348.56161287  .00000099  00000-0  16108-4 0  9993,2 55650  70.0010  82.1983 0002847 261.4520  98.6316 14.98330105 46549,6950.193,96.107,574.036,570.079,0.0
55650.0,STARLINK-5494,PAYLOAD,2023-12-14 16:40:59,14.98330128,0.0002818,70.001,81.8614,263.2476,96.8362,2.0885e-05,1.56e-06,0.0,0 STARLINK-5494,1 55650U 23021Y   23348.69513375  .00000156  00000-0  20885-4 0  9997,2 55650  70.0010  81.8614 0002818 263.2476  96.8362 14.98330128 46269,6950.192,96.107,574.016,570.099,0.0
55650.0,STARLINK-5494,PAYLOAD,2023-12-15 13:30:44,14.98365341,0.0002021,70.002,79.6747,233.5455,126.5518,-0.00078502,-9.455e-05,0.0,0 STARLINK-5494,1 55650U 23021Y   23349.56301206 -.00009455  00000-0 -78502-3 0  9993,2 55650  70.0020  79.6747 0002021 233.5455 126.5518 14.98365341 46691,6950.084,96.105,573.353,570.544,0.0
55650.0,STARLINK-5494,PAYLOAD,2023-12-15 15:06:51,14.98377672,0.0001923,70.0018,79.505,256.3052,103.7893,-0.00089668,-0.00010788,0.0,0 STARLINK-5494,1 55650U 23021Y   23349.62976708 -.00010788  00000-0 -89668-3 0  9991,2 55650  70.0018  79.5050 0001923 256.3052 103.7893 14.98377672 46402,6950.045,96.104,573.247,570.574,0.0
55650.0,STARLINK-5494,PAYLOAD,2023-12-16 11:56:37,14.98327174,0.0002848,70.0009,77.3167,258.5144,101.5695,-1.3245e-05,-2.51e-06,0.0,0 STARLINK-5494,1 55650U 23021Y   23350.49765592 -.00000251  00000-0 -13245-4 0  9998,2 55650  70.0009  77.3167 0002848 258.5144 101.5695 14.98327174 46532,6950.202,96.107,574.046,570.087,0.0
55650.0,STARLINK-5494,PAYLOAD,2023-12-16 13:32:45,14.9832764,0.0002647,70.0015,77.1492,251.0701,109.0171,-2.1757e-05,-3.52e-06,0.0,0 STARLINK-5494,1 55650U 23021Y   23350.56441580 -.00000352  00000-0 -21757-4 0  9993,2 55650  70.0015  77.1492 0002647 251.0701 109.0171 14.98327640 46846,6950.2,96.107,573.905,570.225,0.0
55650.0,STARLINK-5494,PAYLOAD,2023-12-16 15:08:53,14.98330063,0.0002805,70.0006,76.9803,254.2254,105.8596,1.1403e-06,-7.9e-07,0.0,0 STARLINK-5494,1 55650U 23021Y   23350.63117340 -.00000079  00000-0  11403-5 0  9998,2 55650  70.0006  76.9803 0002805 254.2254 105.8596 14.98330063 46852,6950.193,96.107,574.007,570.108,0.0
55650.0,STARLINK-5494,PAYLOAD,2023-12-17 11:58:38,14.98325687,0.0002869,70.001,74.7925,256.1734,103.9106,3.9074e-05,3.73e-06,0.0,0 STARLINK-5494,1 55650U 23021Y   23351.49905616  .00000373  00000-0  39074-4 0  9993,2 55650  70.0010  74.7925 0002869 256.1734 103.9106 14.98325687 46685,6950.206,96.107,574.065,570.077,0.0
55650.0,STARLINK-5494,PAYLOAD,2023-12-17 13:34:46,14.98326171,0.0002805,70.0009,74.6237,257.7723,102.3122,4.4233e-05,4.35e-06,0.0,0 STARLINK-5494,1 55650U 23021Y   23351.56581569  .00000435  00000-0  44233-4 0  9990,2 55650  70.0009  74.6237 0002805 257.7723 102.3122 14.98326171 46997,6950.205,96.107,574.019,570.12,0.0
55650.0,STARLINK-5494,PAYLOAD,2023-12-17 15:10:54,14.98327636,0.0002872,70.0007,74.4554,259.5292,100.5544,4.2557e-05,4.15e-06,0.0,0 STARLINK-5494,1 55650U 23021Y   23351.63257493  .00000415  00000-0  42557-4 0  9999,2 55650  70.0007  74.4554 0002872 259.5292 100.5544 14.98327636 47008,6950.2,96.107,574.061,570.069,0.0
55650.0,STARLINK-5494,PAYLOAD,2023-12-18 12:00:38,14.9833746,0.0002971,70.0006,72.2667,259.5235,100.5589,6.9936e-05,7.42e-06,0.0,0 STARLINK-5494,1 55650U 23021Y   23352.50044578  .00000742  00000-0  69936-4 0  9997,2 55650  70.0006  72.2667 0002971 259.5235 100.5589 14.98337460 46830,6950.17,96.107,574.1,569.97,0.0
